OBJECT_NAME,OBJECT_ID,EPOCH,MEAN_MOTION,ECCENTRICITY,INCLINATION,RA_OF_ASC_NODE,ARG_OF_PERICENTER,MEAN_ANOMALY,EPHEMERIS_TYPE,CLASSIFICATION_TYPE,NORAD_CAT_ID,ELEMENT_SET_NO,REV_AT_EPOCH,BSTAR,MEAN_MOTION_DOT,MEAN_MOTION_DDOT
DELTA 1 DEB,1975-052CS,2022-06-30T22:07:02.079840,13.33260358,.0061919,100.3475,65.5052,116.7677,257.8318,0,U,21372,999,51327,.15023E-3,.29E-6,0
DELTA 1 DEB,1975-052CT,2022-06-30T17:44:18.184704,13.32138406,.007407,100.0159,96.2215,235.5437,182.1174,0,U,21373,999,51155,.2372E-3,.72E-6,0
DELTA 1 DEB,1975-052CU,2022-06-30T21:17:33.184032,13.58636523,.0262446,99.8632,349.2330,327.3313,203.0324,0,U,21374,999,53699,.34851E-3,.271E-5,0
DELTA 1 DEB,1975-052CX,2022-06-30T22:16:38.577792,13.30885359,.0230445,100.2312,166.6228,209.5208,225.6927,0,U,21377,999,50058,.18876E-2,.99E-5,0
DELTA 1 DEB,1975-052DA,2022-06-30T12:53:05.800416,13.60714347,.0057055,99.2773,183.4080,271.7079,209.1258,0,U,21380,999,54157,.12582E-3,.54E-6,0
DELTA 1 DEB,1975-052DC,2022-06-30T19:59:56.654304,13.61214891,.0345869,100.6391,286.3364,78.3942,285.5799,0,U,21382,999,46708,.11886E-1,.13444E-3,0
DELTA 1 DEB,1975-052DD,2022-07-01T05:29:16.973952,12.72788366,.0365544,99.7129,271.9784,253.8628,128.5306,0,U,21383,999,44464,.90747E-3,.208E-5,0
DELTA 1 DEB,1975-052DE,2022-06-30T12:30:03.580128,12.90666156,.0298184,99.6150,188.0405,193.2995,320.9264,0,U,21384,999,46412,.44304E-3,.106E-5,0
DELTA 1 DEB,1975-052DG,2022-06-30T20:13:03.193248,13.26646541,.0186269,99.5858,312.3603,88.4490,63.0121,0,U,21386,999,50072,.18784E-3,.53E-6,0
DELTA 1 DEB,1975-052DH,2022-06-30T18:58:33.784320,13.45213803,.00452,99.3456,179.8033,261.1941,276.0478,0,U,21387,999,52501,.2997E-3,.137E-5,0
DELTA 1 DEB,1975-052DJ,2022-06-30T16:38:15.207648,13.50244088,.007029,99.6724,88.3587,267.3767,146.4627,0,U,21388,999,53195,.11816E-3,.33E-6,0
AURORA 2,1991-037A,2022-06-30T03:33:42.833952,0.99014419,.0002308,14.0468,15.7846,113.5515,92.2115,0,U,21392,999,11239,0,.26E-6,0
DELTA 2 R/B,1991-037B,2022-07-01T05:05:51.953568,13.54749775,.0895532,24.9791,192.1202,157.0301,207.2923,0,U,21393,999,50023,.10456E-3,.1582E-4,0
AURORA 2 R/B [PAM-D],1991-037C,2022-06-30T09:41:05.076672,2.22013211,.6857663,23.7354,86.6147,322.4380,283.4875,0,U,21394,999,25224,0,-.44E-6,0
OKEAN-3,1991-039A,2022-06-30T18:15:10.204128,14.93724899,.0017047,82.5207,189.8834,195.4820,164.5881,0,U,21397,999,66316,.46714E-4,.522E-5,0
SL-14 R/B,1991-039B,2022-06-30T20:51:14.948064,14.79928006,.0019837,82.5234,313.4182,272.0159,87.8782,0,U,21398,999,65493,.138E-4,.127E-5,0
SL-8 DEB,1991-009BP,2022-06-30T22:10:05.202912,12.36684020,.0184265,73.9695,41.3132,75.8801,34.4824,0,U,21400,999,34052,.45828E-3,.48E-6,0
SL-8 DEB,1991-009BQ,2022-06-30T20:08:10.770720,12.16820618,.0143255,74.1355,20.5703,184.1419,189.9238,0,U,21401,999,39062,.1381E-2,.128E-5,0
SL-8 DEB,1991-009BR,2022-06-30T15:18:20.954592,12.18272461,.0136696,74.0261,247.6530,266.1114,250.6493,0,U,21402,999,39243,.11846E-3,-.3E-7,0
SL-8 DEB,1991-009BS,2022-06-30T17:51:56.147904,12.31495180,.0135581,73.9336,173.4411,309.3529,227.4038,0,U,21403,999,40632,.30748E-3,.22E-6,0
SL-8 DEB,1991-009BT,2022-06-30T17:03:42.034752,12.41286333,.0185844,73.9594,265.6799,293.6743,225.9623,0,U,21404,999,41727,.60402E-3,.7E-6,0
SL-8 DEB,1991-009BU,2022-06-30T21:27:40.428288,12.18707748,.0227616,73.9561,166.1842,305.4453,72.6350,0,U,21405,999,39161,.7574E-4,-.8E-7,0
SL-8 DEB,1991-009BV,2022-07-01T01:21:14.302656,12.31494444,.013503,73.9128,153.5522,334.3473,97.6626,0,U,21406,999,40274,.32975E-3,.25E-6,0
SL-8 DEB,1991-009BW,2022-06-30T19:13:34.955328,12.32341019,.0176614,73.8533,69.0614,15.3335,56.5440,0,U,21407,999,40822,.93993E-3,.104E-5,0
SL-8 DEB,1991-009BX,2022-06-30T20:18:46.831104,12.15731086,.0201168,74.0270,313.5144,335.4948,181.9804,0,U,21408,999,38951,.19158E-2,.185E-5,0
COSMOS 2150,1991-041A,2022-06-30T20:04:19.472736,14.31822451,.0017045,74.0358,233.0358,8.6079,351.5360,0,U,21418,999,62177,.23196E-4,.36E-6,0
SL-8 R/B,1991-041B,2022-06-30T16:25:36.026400,14.34081504,.0040678,74.0378,174.5555,10.9842,349.2188,0,U,21419,999,62380,.13423E-4,.12E-6,0
SL-8 DEB,1991-041C,2022-06-30T21:14:03.397056,14.41440020,.0003806,74.0664,131.4554,83.1765,304.3408,0,U,21420,999,62664,.11806E-3,.357E-5,0
COSMOS 2151,1991-042A,2022-06-30T19:10:39.947808,14.92697030,.0012529,82.5011,295.0366,268.5514,91.4270,0,U,21422,999,66167,.38745E-4,.425E-5,0
SL-14 R/B,1991-042B,2022-06-30T21:43:02.307648,14.79952279,.0017233,82.4936,42.0100,348.5701,11.5118,0,U,21423,999,65361,.14503E-4,.133E-5,0
MOLNIYA 1-81,1991-043A,2022-06-30T11:54:43.298208,2.00624506,.7102174,64.1381,342.3981,266.9888,17.2394,0,U,21426,999,22742,0,-.8E-7,0
