DELTA 1 DEB             
1 21372U 75052CS  22181.92155185  .00000029  00000+0  15023-3 0  9998
2 21372 100.3475  65.5052 0061919 116.7677 257.8318 13.33260358513277
DELTA 1 DEB             
1 21373U 75052CT  22181.73909936  .00000072  00000+0  23720-3 0  9990
2 21373 100.0159  96.2215 0074070 235.5437 182.1174 13.32138406511558
DELTA 1 DEB             
1 21374U 75052CU  22181.88718963  .00000271  00000+0  34851-3 0  9993
2 21374  99.8632 349.2330 0262446 327.3313 203.0324 13.58636523536994
DELTA 1 DEB             
1 21377U 75052CX  22181.92822428  .00000990  00000+0  18876-2 0  9999
2 21377 100.2312 166.6228 0230445 209.5208 225.6927 13.30885359500582
DELTA 1 DEB             
1 21380U 75052DA  22181.53687269  .00000054  00000+0  12582-3 0  9992
2 21380  99.2773 183.4080 0057055 271.7079 209.1258 13.60714347541577
DELTA 1 DEB             
1 21382U 75052DC  22181.83329461  .00013444  00000+0  11886-1 0  9995
2 21382 100.6391 286.3364 0345869  78.3942 285.5799 13.61214891467084
DELTA 1 DEB             
1 21383U 75052DD  22182.22866868  .00000208  00000+0  90747-3 0  9996
2 21383  99.7129 271.9784 0365544 253.8628 128.5306 12.72788366444642
DELTA 1 DEB             
1 21384U 75052DE  22181.52087477  .00000106  00000+0  44304-3 0  9995
2 21384  99.6150 188.0405 0298184 193.2995 320.9264 12.90666156464121
DELTA 1 DEB             
1 21386U 75052DG  22181.84239807  .00000053  00000+0  18784-3 0  9992
2 21386  99.5858 312.3603 0186269  88.4490  63.0121 13.26646541500724
DELTA 1 DEB             
1 21387U 75052DH  22181.79066880  .00000137  00000+0  29970-3 0  9998
2 21387  99.3456 179.8033 0045200 261.1941 276.0478 13.45213803525012
DELTA 1 DEB             
1 21388U 75052DJ  22181.69323157  .00000033  00000+0  11816-3 0  9996
2 21388  99.6724  88.3587 0070290 267.3767 146.4627 13.50244088531954
AURORA 2                
1 21392U 91037A   22181.14841243  .00000026  00000+0  00000+0 0  9994
2 21392  14.0468  15.7846 0002308 113.5515  92.2115  0.99014419112390
DELTA 2 R/B             
1 21393U 91037B   22182.21240687  .00001582  00000+0  10456-3 0  9997
2 21393  24.9791 192.1202 0895532 157.0301 207.2923 13.54749775500235
AURORA 2 R/B [PAM-D]    
1 21394U 91037C   22181.40353098 -.00000044  00000+0  00000+0 0  9992
2 21394  23.7354  86.6147 6857663 322.4380 283.4875  2.22013211252246
OKEAN-3                 
1 21397U 91039A   22181.76053477  .00000522  00000+0  46714-4 0  9991
2 21397  82.5207 189.8834 0017047 195.4820 164.5881 14.93724899663168
SL-14 R/B               
1 21398U 91039B   22181.86892301  .00000127  00000+0  13800-4 0  9991
2 21398  82.5234 313.4182 0019837 272.0159  87.8782 14.79928006654938
SL-8 DEB                
1 21400U 91009BP  22181.92367133  .00000048  00000+0  45828-3 0  9995
2 21400  73.9695  41.3132 0184265  75.8801  34.4824 12.36684020340528
SL-8 DEB                
1 21401U 91009BQ  22181.83901355  .00000128  00000+0  13810-2 0  9990
2 21401  74.1355  20.5703 0143255 184.1419 189.9238 12.16820618390625
SL-8 DEB                
1 21402U 91009BR  22181.63774253 -.00000003  00000+0  11846-3 0  9995
2 21402  74.0261 247.6530 0136696 266.1114 250.6493 12.18272461392434
SL-8 DEB                
1 21403U 91009BS  22181.74439986  .00000022  00000+0  30748-3 0  9991
2 21403  73.9336 173.4411 0135581 309.3529 227.4038 12.31495180406323
SL-8 DEB                
1 21404U 91009BT  22181.71090318  .00000070  00000+0  60402-3 0  9994
2 21404  73.9594 265.6799 0185844 293.6743 225.9623 12.41286333417271
SL-8 DEB                
1 21405U 91009BU  22181.89421792 -.00000008  00000+0  75740-4 0  9992
2 21405  73.9561 166.1842 0227616 305.4453  72.6350 12.18707748391619
SL-8 DEB                
1 21406U 91009BV  22182.05641554  .00000025  00000+0  32975-3 0  9992
2 21406  73.9128 153.5522 0135030 334.3473  97.6626 12.31494444402746
SL-8 DEB                
1 21407U 91009BW  22181.80109902  .00000104  00000+0  93993-3 0  9996
2 21407  73.8533  69.0614 0176614  15.3335  56.5440 12.32341019408222
SL-8 DEB                
1 21408U 91009BX  22181.84637536  .00000185  00000+0  19158-2 0  9999
2 21408  74.0270 313.5144 0201168 335.4948 181.9804 12.15731086389513
COSMOS 2150             
1 21418U 91041A   22181.83633649  .00000036  00000+0  23196-4 0  9990
2 21418  74.0358 233.0358 0017045   8.6079 351.5360 14.31822451621773
SL-8 R/B                
1 21419U 91041B   22181.68444475  .00000012  00000+0  13423-4 0  9997
2 21419  74.0378 174.5555 0040678  10.9842 349.2188 14.34081504623803
SL-8 DEB                
1 21420U 91041C   22181.88476154  .00000357  00000+0  11806-3 0  9994
2 21420  74.0664 131.4554 0003806  83.1765 304.3408 14.41440020626644
COSMOS 2151             
1 21422U 91042A   22181.79907347  .00000425  00000+0  38745-4 0  9998
2 21422  82.5011 295.0366 0012529 268.5514  91.4270 14.92697030661671
SL-14 R/B               
1 21423U 91042B   22181.90488782  .00000133  00000+0  14503-4 0  9991
2 21423  82.4936  42.0100 0017233 348.5701  11.5118 14.79952279653610
MOLNIYA 1-81            
1 21426U 91043A   22181.49633447 -.00000008  00000+0  00000+0 0  9993
2 21426  64.1381 342.3981 7102174 266.9888  17.2394  2.00624506227427
